{
  "type": "FeatureCollection",
  "features": [
    {
      "type": "Feature",
      "properties": {
        "norad_id": 67060,
        "name": "HULIANWANG DIGUI-120",
        "group": "last-30-days",
        "lat": -48.77870635449826,
        "lon": -110.04327809143957,
        "alt_km": 801.1403127252815,
        "timestamp": "2025-12-24T07:45:04.935460+00:00",
        "meta_object_name": "HULIANWANG DIGUI-120",
        "meta_object_id": "2025-295B",
        "meta_epoch": "2025-12-23T18:39:46.505376",
        "meta_mean_motion": 14.25711377,
        "meta_eccentricity": 0.0013178,
        "meta_inclination": 50.0058,
        "meta_ra_of_asc_node": 325.6343,
        "meta_arg_of_pericenter": 286.4479,
        "meta_mean_anomaly": 73.4987,
        "meta_ephemeris_type": 0,
        "meta_classification_type": "U",
        "meta_norad_cat_id": 67060,
        "meta_element_set_no": 999,
        "meta_rev_at_epoch": 169,
        "meta_bstar": 6.7209387e-05,
        "meta_mean_motion_dot": 1e-08,
        "meta_mean_motion_ddot": 0,
        "tle_line1": "1 67060U 25295B   25357.77762159  .00000001  00000+0  67209-4 0  9996",
        "tle_line2": "2 67060  50.0058 325.6343 0013178 286.4479  73.4987 14.25711377  1697"
      },
      "geometry": {
        "type": "Point",
        "coordinates": [
          -110.04327809143957,
          -48.77870635449826
        ]
      }
    },
    {
      "type": "Feature",
      "properties": {
        "norad_id": 67061,
        "name": "HULIANWANG DIGUI-121",
        "group": "last-30-days",
        "lat": -49.86786640388509,
        "lon": -121.4764053843017,
        "alt_km": 803.4430369731363,
        "timestamp": "2025-12-24T07:45:04.935470+00:00",
        "meta_object_name": "HULIANWANG DIGUI-121",
        "meta_object_id": "2025-295C",
        "meta_epoch": "2025-12-23T10:16:36.437664",
        "meta_mean_motion": 14.25038967,
        "meta_eccentricity": 0.00134061,
        "meta_inclination": 50.0019,
        "meta_ra_of_asc_node": 327.1083,
        "meta_arg_of_pericenter": 283.4183,
        "meta_mean_anomaly": 76.5236,
        "meta_ephemeris_type": 0,
        "meta_classification_type": "U",
        "meta_norad_cat_id": 67061,
        "meta_element_set_no": 999,
        "meta_rev_at_epoch": 164,
        "meta_bstar": -3.3550159e-05,
        "meta_mean_motion_dot": -2.39e-06,
        "meta_mean_motion_ddot": 0,
        "tle_line1": "1 67061U 25295C   25357.42819951 -.00000239  00000+0 -33550-4 0  9999",
        "tle_line2": "2 67061  50.0019 327.1083 0013406 283.4183  76.5236 14.25038967  1649"
      },
      "geometry": {
        "type": "Point",
        "coordinates": [
          -121.4764053843017,
          -49.86786640388509
        ]
      }
    },
    {
      "type": "Feature",
      "properties": {
        "norad_id": 67062,
        "name": "HULIANWANG DIGUI-122",
        "group": "last-30-days",
        "lat": -48.281221151628706,
        "lon": -106.99508915291608,
        "alt_km": 801.0782849403658,
        "timestamp": "2025-12-24T07:45:04.935480+00:00",
        "meta_object_name": "HULIANWANG DIGUI-122",
        "meta_object_id": "2025-295D",
        "meta_epoch": "2025-12-23T22:01:04.503072",
        "meta_mean_motion": 14.25757536,
        "meta_eccentricity": 0.00131662,
        "meta_inclination": 50.0052,
        "meta_ra_of_asc_node": 325.0388,
        "meta_arg_of_pericenter": 292.7926,
        "meta_mean_anomaly": 67.1596,
        "meta_ephemeris_type": 0,
        "meta_classification_type": "U",
        "meta_norad_cat_id": 67062,
        "meta_element_set_no": 999,
        "meta_rev_at_epoch": 171,
        "meta_bstar": 6.5842911e-05,
        "meta_mean_motion_dot": -3e-08,
        "meta_mean_motion_ddot": 0,
        "tle_line1": "1 67062U 25295D   25357.91741323 -.00000003  00000+0  65843-4 0  9999",
        "tle_line2": "2 67062  50.0052 325.0388 0013166 292.7926  67.1596 14.25757536  1716"
      },
      "geometry": {
        "type": "Point",
        "coordinates": [
          -106.99508915291608,
          -48.281221151628706
        ]
      }
    },
    {
      "type": "Feature",
      "properties": {
        "norad_id": 67063,
        "name": "HULIANWANG DIGUI-123",
        "group": "last-30-days",
        "lat": -46.4529283584588,
        "lon": -98.70803568155503,
        "alt_km": 800.9136501773819,
        "timestamp": "2025-12-24T07:45:04.935492+00:00",
        "meta_object_name": "HULIANWANG DIGUI-123",
        "meta_object_id": "2025-295E",
        "meta_epoch": "2025-12-23T18:37:38.191872",
        "meta_mean_motion": 14.25890271,
        "meta_eccentricity": 0.00124733,
        "meta_inclination": 50.0059,
        "meta_ra_of_asc_node": 325.6275,
        "meta_arg_of_pericenter": 291.5304,
        "meta_mean_anomaly": 68.428,
        "meta_ephemeris_type": 0,
        "meta_classification_type": "U",
        "meta_norad_cat_id": 67063,
        "meta_element_set_no": 999,
        "meta_rev_at_epoch": 169,
        "meta_bstar": 6.4661609e-05,
        "meta_mean_motion_dot": -5e-08,
        "meta_mean_motion_ddot": 0,
        "tle_line1": "1 67063U 25295E   25357.77613648 -.00000005  00000+0  64662-4 0  9992",
        "tle_line2": "2 67063  50.0059 325.6275 0012473 291.5304  68.4280 14.25890271  1697"
      },
      "geometry": {
        "type": "Point",
        "coordinates": [
          -98.70803568155503,
          -46.4529283584588
        ]
      }
    },
    {
      "type": "Feature",
      "properties": {
        "norad_id": 67064,
        "name": "HULIANWANG DIGUI-124",
        "group": "last-30-days",
        "lat": -45.43054786373416,
        "lon": -95.16121126250478,
        "alt_km": 800.9139959640333,
        "timestamp": "2025-12-24T07:45:04.935502+00:00",
        "meta_object_name": "HULIANWANG DIGUI-124",
        "meta_object_id": "2025-295F",
        "meta_epoch": "2025-12-22T05:36:45.096192",
        "meta_mean_motion": 14.25948838,
        "meta_eccentricity": 0.00121422,
        "meta_inclination": 50.0035,
        "meta_ra_of_asc_node": 332.1235,
        "meta_arg_of_pericenter": 280.5756,
        "meta_mean_anomaly": 79.379,
        "meta_ephemeris_type": 0,
        "meta_classification_type": "U",
        "meta_norad_cat_id": 67064,
        "meta_element_set_no": 999,
        "meta_rev_at_epoch": 147,
        "meta_bstar": -0.00021789546,
        "meta_mean_motion_dot": -6.84e-06,
        "meta_mean_motion_ddot": 0,
        "tle_line1": "1 67064U 25295F   25356.23385528 -.00000684  00000+0 -21790-3 0  9994",
        "tle_line2": "2 67064  50.0035 332.1235 0012142 280.5756  79.3790 14.25948838  1479"
      },
      "geometry": {
        "type": "Point",
        "coordinates": [
          -95.16121126250478,
          -45.43054786373416
        ]
      }
    },
    {
      "type": "Feature",
      "properties": {
        "norad_id": 67065,
        "name": "HULIANWANG DIGUI-125",
        "group": "last-30-days",
        "lat": -45.337113770965345,
        "lon": -94.86779776140884,
        "alt_km": 800.7781595969072,
        "timestamp": "2025-12-24T07:45:04.935512+00:00",
        "meta_object_name": "HULIANWANG DIGUI-125",
        "meta_object_id": "2025-295G",
        "meta_epoch": "2025-12-23T21:58:41.441952",
        "meta_mean_motion": 14.25955945,
        "meta_eccentricity": 0.00122675,
        "meta_inclination": 50.0009,
        "meta_ra_of_asc_node": 325.0157,
        "meta_arg_of_pericenter": 292.7169,
        "meta_mean_anomaly": 67.2448,
        "meta_ephemeris_type": 0,
        "meta_classification_type": "U",
        "meta_norad_cat_id": 67065,
        "meta_element_set_no": 999,
        "meta_rev_at_epoch": 171,
        "meta_bstar": 6.5392727e-05,
        "meta_mean_motion_dot": -3e-08,
        "meta_mean_motion_ddot": 0,
        "tle_line1": "1 67065U 25295G   25357.91575743 -.00000003  00000+0  65393-4 0  9993",
        "tle_line2": "2 67065  50.0009 325.0157 0012267 292.7169  67.2448 14.25955945  1716"
      },
      "geometry": {
        "type": "Point",
        "coordinates": [
          -94.86779776140884,
          -45.337113770965345
        ]
      }
    },
    {
      "type": "Feature",
      "properties": {
        "norad_id": 67066,
        "name": "HULIANWANG DIGUI-126",
        "group": "last-30-days",
        "lat": -42.43933548775345,
        "lon": -86.86738404876546,
        "alt_km": 800.8395973866709,
        "timestamp": "2025-12-24T07:45:04.935524+00:00",
        "meta_object_name": "HULIANWANG DIGUI-126",
        "meta_object_id": "2025-295H",
        "meta_epoch": "2025-12-23T21:56:56.684544",
        "meta_mean_motion": 14.2609894,
        "meta_eccentricity": 0.0011423,
        "meta_inclination": 50.0012,
        "meta_ra_of_asc_node": 325.0085,
        "meta_arg_of_pericenter": 289.8813,
        "meta_mean_anomaly": 70.0869,
        "meta_ephemeris_type": 0,
        "meta_classification_type": "U",
        "meta_norad_cat_id": 67066,
        "meta_element_set_no": 999,
        "meta_rev_at_epoch": 171,
        "meta_bstar": 6.8838698e-05,
        "meta_mean_motion_dot": 5e-08,
        "meta_mean_motion_ddot": 0,
        "tle_line1": "1 67066U 25295H   25357.91454496  .00000005  00000+0  68839-4 0  9994",
        "tle_line2": "2 67066  50.0012 325.0085 0011423 289.8813  70.0869 14.26098940  1710"
      },
      "geometry": {
        "type": "Point",
        "coordinates": [
          -86.86738404876546,
          -42.43933548775345
        ]
      }
    }
  ]
}